COSMOS 2426 (717)       
1 29671U 06062B   20142.32455809 -.00000021  00000-0  10000-3 0  9992
2 29671  64.9784 268.8280 0020091 171.7865 158.5884  2.12962344104317
COSMOS 2433 (720)       
1 32275U 07052A   20141.55494003 -.00000065  00000-0  10000-3 0  9997
2 32275  65.9728  29.8493 0002154 286.1123 299.5114  2.13104269 97812
COSMOS 2432 (719)       
1 32276U 07052B   20142.49182211 -.00000059  00000-0  10000-3 0  9990
2 32276  65.9855  29.9089 0011371 335.2897 199.3404  2.13103717 97839
COSMOS 2434 (721)       
1 32393U 07065A   20142.38847101 -.00000020  00000-0  00000+0 0  9991
2 32393  64.5847 267.3466 0004116 103.2154 289.4305  2.13103156 96545
COSMOS 2436 (723)       
1 32395U 07065C   20142.27120638 -.00000021  00000-0  10000-3 0  9996
2 32395  64.5945 267.3996 0013975   5.4317  73.5029  2.13103031 96470
COSMOS 2456 (730)       
1 36111U 09070A   20142.27651617  .00000093  00000-0  00000+0 0  9993
2 36111  64.2254 147.0226 0006355 303.6915 176.4870  2.13102851 81202
COSMOS 2457 (733)       
1 36112U 09070B   20142.49599688  .00000092  00000-0  00000-0 0  9997
2 36112  64.2094 146.9100 0004771 196.4920 215.4670  2.13101477 81214
COSMOS 2459 (731)       
1 36400U 10007A   20142.18059096 -.00000061  00000-0  10000-3 0  9990
2 36400  65.8746  28.8043 0026822 351.5470 209.3775  2.13105178 79558
COSMOS 2461 (735)       
1 36401U 10007B   20141.97954075 -.00000062  00000-0  10000-3 0  9999
2 36401  65.8682  28.7811 0008189  56.5123 258.5726  2.13102013 79549
COSMOS 2460 (732)       
1 36402U 10007C   20142.22788308 -.00000060  00000-0  10000-3 0  9991
2 36402  65.8594  28.7317 0001561  22.8748 161.9037  2.13101415 79557
COSMOS 2464 (736)       
1 37139U 10041C   20142.13886762 -.00000023  00000-0  00000-0 0  9995
2 37139  64.1831 266.8094 0026333  13.2068  51.7589  2.13100693 75620
COSMOS 2474 (742)       
1 37829U 11055A   20142.30997356  .00000094  00000-0  00000-0 0  9995
2 37829  64.5451 148.0360 0010572 249.8814 110.8385  2.13101774 67206
COSMOS 2476 (744)       
1 37867U 11064A   20142.19600285  .00000095  00000-0  00000-0 0  9997
2 37867  64.5254 148.0833 0021563 243.1048  76.4347  2.13101918 66543
COSMOS 2477 (745)       
1 37868U 11064B   20142.32351480  .00000094  00000-0  00000+0 0  9991
2 37868  64.5339 148.1354 0019172 244.5743 351.3002  2.13101781 66504
COSMOS 2475 (743)       
1 37869U 11064C   20142.22241755  .00000095  00000-0  00000-0 0  9996
2 37869  64.5410 148.1401 0023574 263.3899 212.2722  2.13101973 66518
COSMOS 2485 (747)       
1 39155U 13019A   20142.25265686  .00000095  00000-0  00000-0 0  9990
2 39155  64.6927 148.3449 0021922 238.6760 168.8995  2.13101904 55029
COSMOS 2492 (754)       
1 39620U 14012A   20142.41184060 -.00000059  00000-0  10000-3 0  9990
2 39620  65.7477  28.5132 0014050 332.5958 232.1852  2.13103296 47971
COSMOS 2500 (755)       
1 40001U 14032A   20142.47886031 -.00000059  00000-0  00000-0 0  9996
2 40001  65.6863  28.4279 0004588 201.5958 275.2191  2.13102882 46192
COSMOS 2501 (702K)      
1 40315U 14075A   20142.44876227 -.00000021  00000-0  00000-0 0  9993
2 40315  63.9030 267.7540 0016058 204.8393  44.0968  2.13098642 42592
COSMOS 2514 (751)       
1 41330U 16008A   20142.32098103 -.00000060  00000-0  00000-0 0  9998
2 41330  65.4892  28.3107 0008256 216.7688 321.2982  2.13103064 33358
COSMOS 2516 (753)       
1 41554U 16032A   20142.28494532 -.00000022  00000-0  00000+0 0  9991
2 41554  64.1237 267.8208 0012045 212.7968 188.4030  2.13101686 30964
COSMOS 2522 (752)       
1 42939U 17055A   20142.40715042 -.00000021  00000-0  00000-0 0  9991
2 42939  64.3584 267.9897 0006329 241.4587 120.0652  2.13101897 20727
COSMOS 2527 (756)       
1 43508U 18053A   20142.31054064  .00000095  00000-0  00000-0 0  9993
2 43508  64.8576 148.1836 0009266 243.8348  75.3380  2.13102611 15003
COSMOS 2529 (757)       
1 43687U 18086A   20142.46637672 -.00000020  00000-0  00000-0 0  9994
2 43687  64.5719 268.1033 0008578 272.1073  90.4723  2.13102096 12030
COSMOS 2534 (758)       
1 44299U 19030A   20142.10624523 -.00000023  00000-0  00000-0 0  9999
2 44299  64.6416 267.9264 0011751 291.9144 289.4423  2.13102006  7664
